EUTELSAT 8 WEST B       
1 40875U 15039B   26004.88585481 -.00000066  00000+0  00000+0 0  9992
2 40875   0.0631 357.7397 0004128 285.6832 131.9781  1.00271784 38018
EUTELSAT 9B             
1 41310U 16005A   26004.88923483  .00000062  00000+0  00000+0 0  9994
2 41310   0.0532  68.6010 0004972 213.9659 151.0325  1.00272759 36479
EUTELSAT 65 WEST A      
1 41382U 16014A   26004.94584723 -.00000276  00000+0  00000+0 0  9998
2 41382   0.0661 317.4553 0002513 326.8740  95.5161  1.00272517 35899
EUTELSAT 117 WEST B     
1 41589U 16038B   26004.57896622 -.00000010  00000+0  00000+0 0  9992
2 41589   0.0101 155.1716 0000214 306.0311  94.4173  1.00265363 35022
EUTELSAT 172B           
1 42741U 17029B   26004.92158042 -.00000006  00000+0  00000+0 0  9995
2 42741   0.0291 117.8807 0000258 108.2347  22.1574  1.00269986 32090
EUTELSAT 7C             
1 44334U 19034B   26004.88888816  .00000048  00000+0  00000+0 0  9992
2 44334   0.0753 180.8266 0003515  88.4062 162.2245  1.00270656  5192
EUTELSAT 5 WEST B       
1 44624U 19067A   26004.88646148 -.00000042  00000+0  00000+0 0  9995
2 44624   0.0718 329.8768 0003430 314.3332 134.3869  1.00271122 22802
EUTELSAT KONNECT        
1 45027U 20005B   26004.88888816  .00000049  00000+0  00000+0 0  9993
2 45027   0.0692  92.8981 0001647 187.8487 150.9267  1.00270128 22695
